OBJECT_NAME,OBJECT_ID,EPOCH,MEAN_MOTION,ECCENTRICITY,INCLINATION,RA_OF_ASC_NODE,ARG_OF_PERICENTER,MEAN_ANOMALY,EPHEMERIS_TYPE,CLASSIFICATION_TYPE,NORAD_CAT_ID,ELEMENT_SET_NO,REV_AT_EPOCH,BSTAR,MEAN_MOTION_DOT,MEAN_MOTION_DDOT
ONEWEB-0153,2021-025C,2026-05-28T05:00:33.065856,13.13469458,.00017738,87.8941,324.2032,94.7574,265.3758,0,U,48044,999,25092,-.83781813E-3,-.293E-5,0
ONEWEB-0154,2021-025D,2026-05-28T04:55:39.958176,13.13468879,.00017043,87.8941,324.2013,90.1532,269.9792,0,U,48045,999,25088,-.86126194E-3,-.302E-5,0
ONEWEB-0116,2021-025E,2026-05-28T05:51:43.986240,13.13471734,.00017878,87.8951,324.1888,87.0313,273.1021,0,U,48046,999,25103,.85058444E-3,.323E-5,0
ONEWEB-0150,2021-025F,2026-05-28T05:17:36.807360,13.13469158,.00019675,87.8947,324.1910,95.3286,264.8068,0,U,48047,999,25092,-.6460263E-3,-.223E-5,0
ONEWEB-0107,2021-025G,2026-05-28T05:20:03.102432,13.13469431,.00017245,87.8949,324.1864,100.5931,259.5393,0,U,48048,999,25090,-.45620434E-3,-.154E-5,0
ONEWEB-0101,2021-025H,2026-05-28T04:26:25.855872,13.13469187,.00016365,87.8940,324.2117,93.3796,266.7520,0,U,48049,999,25087,.34794564E-3,.14E-5,0
ONEWEB-0113,2021-025J,2026-05-28T05:10:47.817408,13.13894652,.00018469,87.8942,324.1174,91.5681,268.5660,0,U,48050,999,25098,-.93630926E-3,-.331E-5,0
ONEWEB-0112,2021-025K,2026-05-28T05:27:22.233024,13.13469400,.00015491,87.8951,324.1833,96.1474,263.9832,0,U,48051,999,25097,.1355724E-3,.62E-6,0
ONEWEB-0156,2021-025L,2026-05-28T05:39:33.369696,13.13469191,.00018129,87.8950,324.1918,96.6060,263.5276,0,U,48052,999,25095,.6637538E-3,.255E-5,0
ONEWEB-0161,2021-025M,2026-05-27T21:44:12.396192,13.13469241,.0001783,87.8942,324.2595,98.0215,262.1117,0,U,48053,999,25084,-.8198E-3,-.287E-5,0
ONEWEB-0158,2021-025N,2026-05-28T00:25:05.450880,13.13468441,.00017291,87.8948,324.2344,81.3922,278.7403,0,U,48054,999,25098,.83750899E-3,.319E-5,0
ONEWEB-0157,2021-025P,2026-05-28T04:41:03.131232,13.13468904,.00016361,87.8952,324.2046,104.6851,255.4460,0,U,48055,999,25094,-.4039983E-3,-.135E-5,0
ONEWEB-0162,2021-025Q,2026-05-28T05:56:25.272672,13.13469211,.00019442,87.8944,324.1955,94.3635,265.7716,0,U,48056,999,25092,.95924263E-3,.363E-5,0
ONEWEB-0155,2021-025R,2026-05-28T00:37:16.649760,13.13468119,.00016185,87.8944,324.2358,94.4596,265.6718,0,U,48057,999,25103,.53897395E-3,.21E-5,0
ONEWEB-0149,2021-025S,2026-05-28T04:48:21.877344,13.13469006,.0001996,87.8952,324.2039,94.9859,265.1498,0,U,48058,999,25086,-.70501204E-3,-.245E-5,0
ONEWEB-0148,2021-025T,2026-05-28T05:44:25.915776,13.13469088,.00022559,87.8942,324.2042,102.7430,257.3951,0,U,48059,999,25099,.79643977E-3,.304E-5,0
ONEWEB-0160,2021-025U,2026-05-28T04:19:07.342176,13.13469142,.00020739,87.8942,324.2123,71.3583,288.7772,0,U,48060,999,25093,.6212026E-3,.24E-5,0
ONEWEB-0163,2021-025V,2026-05-28T05:46:52.488192,13.13470300,.00016508,87.8944,324.1933,101.4633,258.6682,0,U,48061,999,25106,.86287666E-3,.328E-5,0
ONEWEB-0159,2021-025W,2026-05-28T05:34:41.098368,13.13470167,.00016345,87.8949,324.1881,99.3063,260.8251,0,U,48062,999,25098,.33331711E-3,.134E-5,0
ONEWEB-0164,2021-025X,2026-05-28T05:07:51.122496,13.13469356,.00017795,87.8951,324.1980,89.5760,270.5573,0,U,48063,999,25096,-.72036343E-3,-.25E-5,0
ONEWEB-0167,2021-025Y,2026-05-28T05:48:05.557536,13.13470942,.00011221,87.8941,324.2044,98.2714,261.8543,0,U,48064,999,25095,.92258484E-3,.35E-5,0
ONEWEB-0166,2021-025Z,2026-05-28T04:31:18.117696,13.13470198,.00019021,87.8952,324.1845,97.0048,263.1297,0,U,48065,999,25102,.20938345E-3,.89E-6,0
ONEWEB-0151,2021-025AA,2026-05-28T04:33:43.422624,13.13468445,.00016489,87.8940,324.2030,90.8793,269.2525,0,U,48066,999,25096,-.35478553E-4,0,0
ONEWEB-0170,2021-025AB,2026-05-28T04:45:54.785664,13.13468795,.00015948,87.8940,324.2030,77.6791,282.4516,0,U,48067,999,25092,-.63180357E-3,-.218E-5,0
ONEWEB-0168,2021-025AC,2026-05-28T04:23:58.690752,13.13468184,.00017419,87.8952,324.2043,98.1212,262.0115,0,U,48068,999,25093,.40127823E-3,.159E-5,0
ONEWEB-0173,2021-025AD,2026-05-28T06:01:29.543232,13.13468666,.00015038,87.8945,324.1937,101.5316,258.5982,0,U,48069,999,25118,.89967924E-3,.341E-5,0
ONEWEB-0171,2021-025AE,2026-05-28T05:05:25.337184,13.13469438,.00017069,87.8941,324.2099,90.4556,269.6769,0,U,48070,999,25099,-.88239589E-3,-.309E-5,0
ONEWEB-0172,2021-025AF,2026-05-28T00:56:46.993920,13.13469044,.00016025,87.8948,324.2332,93.6691,266.4621,0,U,48071,999,25186,-.33238272E-3,-.109E-5,0
ONEWEB-0174,2021-025AG,2026-05-28T05:59:04.233984,13.13469075,.0001873,87.8946,324.1909,97.2353,262.8989,0,U,48072,999,25121,.11562341E-2,.435E-5,0
ONEWEB-0175,2021-025AH,2026-05-28T04:53:14.292960,13.13469638,.00014936,87.8951,324.1832,85.4960,274.6340,0,U,48073,999,25086,-.77898779E-3,-.272E-5,0
ONEWEB-0177,2021-025AJ,2026-05-27T21:51:31.165632,13.13470116,.0001807,87.8948,324.2605,99.6954,260.4379,0,U,48074,999,25101,-.54302E-3,-.186E-5,0
ONEWEB-0178,2021-025AK,2026-05-28T05:37:19.096320,13.13471276,.00014933,87.8932,324.2114,94.2188,265.9112,0,U,48075,999,25110,.56046412E-3,.217E-5,0
ONEWEB-0108,2021-025AL,2026-05-28T00:59:12.824160,13.13468655,.00020146,87.8953,324.2252,90.8074,269.3286,0,U,48076,999,25100,-.60945179E-3,-.21E-5,0
ONEWEB-0169,2021-025AM,2026-05-27T22:06:08.282016,13.13469685,.0001852,87.8941,324.2588,95.2882,264.8459,0,U,48077,999,24964,.44733E-4,.29E-6,0
GAOFEN-12 02,2021-026A,2026-05-28T06:50:48.424416,14.80277932,.00036045,97.9920,146.5482,311.7142,48.3761,0,U,48079,999,27881,.65859657E-4,.449E-5,0
STARLINK-2404,2021-027B,2026-05-28T06:51:31.942368,15.31718194,.00012474,53.1579,144.7087,91.1813,268.9331,0,U,48093,999,28485,.31655973E-3,.9476E-4,0
STARLINK-2412,2021-027C,2026-05-28T08:00:03.000384,15.31688761,.00012801,53.1590,155.3018,83.3295,266.7462,0,U,48094,999,577,.34545692E-3,.10366E-3,0
STARLINK-2414,2021-027D,2026-05-28T07:35:45.685536,15.31695603,.00013667,53.1596,155.1007,128.6613,231.4511,0,U,48095,999,28472,.14859796E-3,.4248E-4,0
STARLINK-2417,2021-027E,2026-05-28T07:22:21.789696,15.31713507,.0001279,53.1567,155.2915,94.7811,265.3336,0,U,48096,999,28470,.8979644E-4,.2423E-4,0
STARLINK-2418,2021-027F,2026-05-28T05:36:50.073696,15.31713405,.0001261,53.1593,142.9424,98.9214,261.1930,0,U,48097,999,28486,.41613615E-3,.12575E-3,0
STARLINK-2421,2021-027G,2026-05-28T06:17:57.917760,15.31707979,.00014962,53.1580,144.8209,109.1166,250.9997,0,U,48098,999,28484,.19460068E-3,.568E-4,0
STARLINK-2428,2021-027H,2026-05-28T06:36:19.545408,15.31698035,.00014958,53.1593,157.6257,81.6350,278.4821,0,U,48099,999,28466,-.12579465E-4,-.756E-5,0
STARLINK-2430,2021-027J,2026-05-28T05:57:20.575584,15.31719694,.00013954,53.1591,142.4363,92.0103,268.1058,0,U,48100,999,28487,.10488103E-3,.2893E-4,0
STARLINK-2436,2021-027K,2026-05-28T06:31:25.648896,15.31702288,.00012765,53.1584,144.9007,86.7898,273.3249,0,U,48101,999,28485,.4207396E-5,-.235E-5,0
STARLINK-2439,2021-027N,2026-05-28T06:44:23.693856,15.31715850,.00013788,53.1588,142.5886,107.6176,252.4976,0,U,48104,999,28488,.92241527E-4,.2499E-4,0
STARLINK-2440,2021-027P,2026-05-28T01:50:35.774880,15.31734822,.00016263,53.1602,92.0011,104.0681,256.0501,0,U,48105,999,28556,.37550696E-3,.11317E-3,0
STARLINK-2442,2021-027Q,2026-05-28T06:23:45.295008,15.31716324,.0001248,53.1597,142.5319,89.7779,270.3366,0,U,48106,999,28487,.90885987E-4,.2457E-4,0
STARLINK-2443,2021-027R,2026-05-28T05:30:35.280864,15.31728339,.00014562,53.1585,142.8279,90.1676,269.9492,0,U,48107,999,28486,.35431288E-3,.10655E-3,0
STARLINK-2448,2021-027V,2026-05-28T05:35:28.608864,15.39200961,.00065899,53.1572,142.5947,20.1619,339.9644,0,U,48111,999,28488,.15538058E-2,.61436E-3,0
STARLINK-2449,2021-027W,2026-05-28T06:35:48.378336,15.31709892,.0001241,53.1574,157.6100,96.1265,263.9878,0,U,48112,999,28467,.10044817E-3,.2754E-4,0
STARLINK-2450,2021-027X,2026-05-28T06:48:44.804160,15.31708177,.00011637,53.1579,155.0912,83.7668,276.3466,0,U,48113,999,28469,.1012876E-3,.278E-4,0
STARLINK-2452,2021-027Z,2026-05-28T05:37:43.288320,15.31690186,.00011721,53.1569,144.9346,90.7413,269.3722,0,U,48115,999,28483,.33101917E-4,.662E-5,0
STARLINK-2454,2021-027AA,2026-05-28T07:44:49.306560,15.30202452,.00011465,53.1582,155.3739,93.2400,266.8732,0,U,48116,999,28470,.58857239E-4,.1385E-4,0
STARLINK-2455,2021-027AB,2026-05-28T06:03:35.570592,15.31705697,.00015373,53.1588,142.4248,108.5674,251.5495,0,U,48117,999,28487,.20517641E-3,.6008E-4,0
STARLINK-2459,2021-027AD,2026-05-28T06:04:04.361664,15.31744157,.0001387,53.1582,142.3494,85.9337,274.1823,0,U,48119,999,28486,.54860677E-3,.1672E-3,0
STARLINK-2460,2021-027AE,2026-05-28T07:31:35.034816,15.41509181,.00023494,53.1579,155.2591,56.7473,303.3757,0,U,48120,999,28471,.49286001E-3,.20635E-3,0
STARLINK-2462,2021-027AF,2026-05-28T06:24:40.128768,15.31716571,.00011457,53.1587,144.8101,87.0444,273.0688,0,U,48121,999,28484,.23343449E-4,.36E-5,0
STARLINK-2464,2021-027AH,2026-05-28T06:10:48.326592,15.31714279,.00012347,53.1579,142.5309,86.2910,273.8232,0,U,48123,999,28487,.22508369E-3,.6629E-4,0
STARLINK-2465,2021-027AJ,2026-05-28T06:38:06.714240,15.31709763,.00012392,53.1573,144.7896,89.7707,270.3437,0,U,48124,999,28484,.77287542E-4,.2035E-4,0
STARLINK-2466,2021-027AK,2026-05-28T06:15:15.052896,15.31711348,.00012383,53.1585,155.4873,89.6087,270.5056,0,U,48125,999,28469,.29890263E-3,.8925E-4,0
STARLINK-2467,2021-027AL,2026-05-28T06:37:09.369696,15.31713765,.0001249,53.1570,142.2923,96.6866,263.4277,0,U,48126,999,28488,.36331779E-3,.1093E-3,0
STARLINK-2468,2021-027AM,2026-05-28T06:41:34.272960,15.31693117,.00011946,53.1580,155.2089,87.1414,272.9724,0,U,48127,999,28470,-.10368981E-3,-.358E-4,0
STARLINK-2469,2021-027AN,2026-05-28T06:28:39.582048,15.24684842,.00035618,53.1010,95.8280,48.6460,311.4844,0,U,48128,999,28551,.29202819E-2,.73535E-3,0
STARLINK-2471,2021-027AP,2026-05-28T06:55:30.831456,15.31683790,.00036897,53.1580,155.3327,169.4978,190.6101,0,U,48129,999,28470,-.25866303E-4,-.1169E-4,0
